start=new Date('2023-01-04T00:00:00.000Z').valueOf();
sats=[{"TIME_SYSTEM":"UTC","TLE_LINE1":"1 47798U 21018M   23003.53224874 -.00001025  00000-0 -49927-4 0  9995","MEAN_ELEMENT_THEORY":"SGP4","BSTAR":"-0.00004992700000","NORAD_CAT_ID":"47798","SITE":"AFETR","SEMIMAJOR_AXIS":"6925.341","GP_ID":"222112165","PERIAPSIS":"545.675","REV_AT_EPOCH":"10186","MEAN_MOTION":"15.06402312","MEAN_ANOMALY":"320.9781","DECAY_DATE":null,"INCLINATION":"53.0537","OBJECT_TYPE":"PAYLOAD","OBJECT_ID":"2021-018M","LAUNCH_DATE":"2021-03-11","CLASSIFICATION_TYPE":"U","PERIOD":"95.592","TLE_LINE2":"2 47798  53.0537  44.2623 0002211  39.1367 320.9781 15.06402312101866","RA_OF_ASC_NODE":"44.2623","EPOCH":"2023-01-03T12:46:26.291136","REF_FRAME":"TEME","ELEMENT_SET_NO":"999","MEAN_MOTION_DDOT":"0.0000000000000","ARG_OF_PERICENTER":"39.1367","FILE":"3730926","CENTER_NAME":"EARTH","RCS_SIZE":"LARGE","OBJECT_NAME":"STARLINK-2379","EPHEMERIS_TYPE":"0","MEAN_MOTION_DOT":"-0.00001025","APOAPSIS":"548.738","COUNTRY_CODE":"US","ECCENTRICITY":"0.00022110"},{"NORAD_CAT_ID":"47799","SITE":"AFETR","SEMIMAJOR_AXIS":"6925.340","TIME_SYSTEM":"UTC","TLE_LINE1":"1 47799U 21018N   23003.39586046  .00001374  00000-0  11111-3 0  9990","BSTAR":"0.00011111000000","MEAN_ELEMENT_THEORY":"SGP4","INCLINATION":"53.0542","DECAY_DATE":null,"OBJECT_ID":"2021-018N","OBJECT_TYPE":"PAYLOAD","MEAN_MOTION":"15.06402713","GP_ID":"222110935","REV_AT_EPOCH":"10183","PERIAPSIS":"545.594","MEAN_ANOMALY":"319.2637","RA_OF_ASC_NODE":"44.8622","EPOCH":"2023-01-03T09:30:02.343744","REF_FRAME":"TEME","ELEMENT_SET_NO":"999","CLASSIFICATION_TYPE":"U","LAUNCH_DATE":"2021-03-11","TLE_LINE2":"2 47799  53.0542  44.8622 0002327  40.8526 319.2637 15.06402713101835","PERIOD":"95.592","APOAPSIS":"548.817","OBJECT_NAME":"STARLINK-2380","EPHEMERIS_TYPE":"0","MEAN_MOTION_DOT":"0.00001374","ECCENTRICITY":"0.00023270","COUNTRY_CODE":"US","FILE":"3730926","CENTER_NAME":"EARTH","ARG_OF_PERICENTER":"40.8526","MEAN_MOTION_DDOT":"0.0000000000000","RCS_SIZE":"LARGE"},{"OBJECT_ID":"2021-018P","OBJECT_TYPE":"PAYLOAD","DECAY_DATE":null,"INCLINATION":"53.0540","MEAN_ANOMALY":"331.2454","MEAN_MOTION":"15.06391468","GP_ID":"222087202","PERIAPSIS":"545.188","REV_AT_EPOCH":"10152","SEMIMAJOR_AXIS":"6925.375","NORAD_CAT_ID":"47800","SITE":"AFETR","BSTAR":"0.00022711000000","MEAN_ELEMENT_THEORY":"SGP4","TIME_SYSTEM":"UTC","TLE_LINE1":"1 47800U 21018P   23003.55068160  .00003102  00000-0  22711-3 0  9992","ECCENTRICITY":"0.00029630","COUNTRY_CODE":"US","APOAPSIS":"549.292","OBJECT_NAME":"STARLINK-2381","MEAN_MOTION_DOT":"0.00003102","EPHEMERIS_TYPE":"0","RCS_SIZE":"LARGE","CENTER_NAME":"EARTH","FILE":"3730814","MEAN_MOTION_DDOT":"0.0000000000000","ARG_OF_PERICENTER":"28.8699","REF_FRAME":"TEME","ELEMENT_SET_NO":"999","EPOCH":"2023-01-03T13:12:58.890240","RA_OF_ASC_NODE":"44.1794","TLE_LINE2":"2 47800  53.0540  44.1794 0002963  28.8699 331.2454 15.06391468101523","PERIOD":"95.593","LAUNCH_DATE":"2021-03-11","CLASSIFICATION_TYPE":"U"},{"SEMIMAJOR_AXIS":"6925.346","SITE":"AFETR","NORAD_CAT_ID":"47801","MEAN_ELEMENT_THEORY":"SGP4","BSTAR":"0.00022659000000","TLE_LINE1":"1 47801U 21018Q   23003.51889913  .00003095  00000-0  22659-3 0  9998","TIME_SYSTEM":"UTC","OBJECT_TYPE":"PAYLOAD","OBJECT_ID":"2021-018Q","INCLINATION":"53.0544","DECAY_DATE":null,"MEAN_ANOMALY":"326.3019","GP_ID":"222112436","PERIAPSIS":"545.590","REV_AT_EPOCH":"10179","MEAN_MOTION":"15.06400682","ELEMENT_SET_NO":"999","REF_FRAME":"TEME","EPOCH":"2023-01-03T12:27:12.884832","RA_OF_ASC_NODE":"49.4134","PERIOD":"95.592","TLE_LINE2":"2 47801  53.0544  49.4134 0002342  33.8118 326.3019 15.06400682101797","LAUNCH_DATE":"2021-03-11","CLASSIFICATION_TYPE":"U","COUNTRY_CODE":"US","ECCENTRICITY":"0.00023420","EPHEMERIS_TYPE":"0","MEAN_MOTION_DOT":"0.00003095","OBJECT_NAME":"STARLINK-2382","APOAPSIS":"548.833","RCS_SIZE":"LARGE","MEAN_MOTION_DDOT":"0.0000000000000","ARG_OF_PERICENTER":"33.8118","CENTER_NAME":"EARTH","FILE":"3730926"},{"COUNTRY_CODE":"US","ECCENTRICITY":"0.00019010","EPHEMERIS_TYPE":"0","MEAN_MOTION_DOT":"0.00004218","OBJECT_NAME":"STARLINK-2383","APOAPSIS":"548.528","RCS_SIZE":"LARGE","MEAN_MOTION_DDOT":"0.0000000000000","ARG_OF_PERICENTER":"46.3195","FILE":"3730926","CENTER_NAME":"EARTH","ELEMENT_SET_NO":"999","REF_FRAME":"TEME","RA_OF_ASC_NODE":"69.7116","EPOCH":"2023-01-03T10:22:27.502464","PERIOD":"95.592","TLE_LINE2":"2 47802  53.0558  69.7116 0001901  46.3195 313.7952 15.06400740101502","LAUNCH_DATE":"2021-03-11","CLASSIFICATION_TYPE":"U","OBJECT_TYPE":"PAYLOAD","OBJECT_ID":"2021-018R","INCLINATION":"53.0558","DECAY_DATE":null,"MEAN_ANOMALY":"313.7952","REV_AT_EPOCH":"10150","GP_ID":"222112666","PERIAPSIS":"545.895","MEAN_MOTION":"15.06400740","SEMIMAJOR_AXIS":"6925.346","SITE":"AFETR","NORAD_CAT_ID":"47802","MEAN_ELEMENT_THEORY":"SGP4","BSTAR":"0.00030189000000","TLE_LINE1":"1 47802U 21018R   23003.43226276  .00004218  00000-0  30189-3 0  9992","TIME_SYSTEM":"UTC"},{"CLASSIFICATION_TYPE":"U","LAUNCH_DATE":"2021-03-11","PERIOD":"95.592","TLE_LINE2":"2 47803  53.0539  44.4349 0001892  49.3281 310.7872 15.06397140101853","RA_OF_ASC_NODE":"44.4349","EPOCH":"2023-01-03T11:53:21.451488","REF_FRAME":"TEME","ELEMENT_SET_NO":"999","ARG_OF_PERICENTER":"49.3281","MEAN_MOTION_DDOT":"0.0000000000000","FILE":"3730926","CENTER_NAME":"EARTH","RCS_SIZE":"LARGE","OBJECT_NAME":"STARLINK-2384","MEAN_MOTION_DOT":"0.00005211","EPHEMERIS_TYPE":"0","APOAPSIS":"548.533","COUNTRY_CODE":"US","ECCENTRICITY":"0.00018920","TIME_SYSTEM":"UTC","TLE_LINE1":"1 47803U 21018S   23003.49538717  .00005211  00000-0  36852-3 0  9992","MEAN_ELEMENT_THEORY":"SGP4","BSTAR":"0.00036852000000","NORAD_CAT_ID":"47803","SITE":"AFETR","SEMIMAJOR_AXIS":"6925.357","REV_AT_EPOCH":"10185","GP_ID":"222111436","PERIAPSIS":"545.912","MEAN_MOTION":"15.06397140","MEAN_ANOMALY":"310.7872","DECAY_DATE":null,"INCLINATION":"53.0539","OBJECT_TYPE":"PAYLOAD","OBJECT_ID":"2021-018S"},{"OBJECT_ID":"2021-018T","OBJECT_TYPE":"PAYLOAD","INCLINATION":"53.0539","DECAY_DATE":null,"MEAN_ANOMALY":"329.5957","MEAN_MOTION":"15.06388169","GP_ID":"222111686","PERIAPSIS":"545.370","REV_AT_EPOCH":"10185","SEMIMAJOR_AXIS":"6925.385","SITE":"AFETR","NORAD_CAT_ID":"47804","BSTAR":"0.00017510000000","MEAN_ELEMENT_THEORY":"SGP4","TLE_LINE1":"1 47804U 21018T   23003.51013630  .00002326  00000-0  17510-3 0  9992","TIME_SYSTEM":"UTC","ECCENTRICITY":"0.00027150","COUNTRY_CODE":"US","APOAPSIS":"549.130","MEAN_MOTION_DOT":"0.00002326","EPHEMERIS_TYPE":"0","OBJECT_NAME":"STARLINK-2385","RCS_SIZE":"LARGE","FILE":"3730926","CENTER_NAME":"EARTH","ARG_OF_PERICENTER":"30.5189","MEAN_MOTION_DDOT":"0.0000000000000","ELEMENT_SET_NO":"999","REF_FRAME":"TEME","RA_OF_ASC_NODE":"44.3618","EPOCH":"2023-01-03T12:14:35.776320","TLE_LINE2":"2 47804  53.0539  44.3618 0002715  30.5189 329.5957 15.06388169101859","PERIOD":"95.593","LAUNCH_DATE":"2021-03-11","CLASSIFICATION_TYPE":"U"},{"RCS_SIZE":"LARGE","CENTER_NAME":"EARTH","FILE":"3730926","MEAN_MOTION_DDOT":"0.0000000000000","ARG_OF_PERICENTER":"42.3151","ECCENTRICITY":"0.00023450","COUNTRY_CODE":"US","APOAPSIS":"548.825","MEAN_MOTION_DOT":"0.00005375","EPHEMERIS_TYPE":"0","OBJECT_NAME":"STARLINK-2386","TLE_LINE2":"2 47805  53.0559  45.0568 0002345  42.3151 317.8018 15.06403945101840","PERIOD":"95.592","CLASSIFICATION_TYPE":"U","LAUNCH_DATE":"2021-03-11","ELEMENT_SET_NO":"999","REF_FRAME":"TEME","EPOCH":"2023-01-03T09:51:19.474848","RA_OF_ASC_NODE":"45.0568","MEAN_ANOMALY":"317.8018","MEAN_MOTION":"15.06403945","GP_ID":"222111936","REV_AT_EPOCH":"10184","PERIAPSIS":"545.577","OBJECT_ID":"2021-018U","OBJECT_TYPE":"PAYLOAD","DECAY_DATE":null,"INCLINATION":"53.0559","BSTAR":"0.00037941000000","MEAN_ELEMENT_THEORY":"SGP4","TLE_LINE1":"1 47805U 21018U   23003.41064207  .00005375  00000-0  37941-3 0  9995","TIME_SYSTEM":"UTC","SEMIMAJOR_AXIS":"6925.336","SITE":"AFETR","NORAD_CAT_ID":"47805"},{"INCLINATION":"53.0559","DECAY_DATE":null,"OBJECT_TYPE":"PAYLOAD","OBJECT_ID":"2021-018V","GP_ID":"222112166","REV_AT_EPOCH":"10171","PERIAPSIS":"545.631","MEAN_MOTION":"15.06395917","MEAN_ANOMALY":"328.2068","NORAD_CAT_ID":"47806","SITE":"AFETR","SEMIMAJOR_AXIS":"6925.361","TIME_SYSTEM":"UTC","TLE_LINE1":"1 47806U 21018V   23003.54745025  .00002964  00000-0  21782-3 0  9991","MEAN_ELEMENT_THEORY":"SGP4","BSTAR":"0.00021782000000","OBJECT_NAME":"STARLINK-2387","EPHEMERIS_TYPE":"0","MEAN_MOTION_DOT":"0.00002964","APOAPSIS":"548.821","COUNTRY_CODE":"US","ECCENTRICITY":"0.00023030","MEAN_MOTION_DDOT":"0.0000000000000","ARG_OF_PERICENTER":"31.9061","CENTER_NAME":"EARTH","FILE":"3730926","RCS_SIZE":"LARGE","EPOCH":"2023-01-03T13:08:19.701600","RA_OF_ASC_NODE":"59.2101","REF_FRAME":"TEME","ELEMENT_SET_NO":"999","CLASSIFICATION_TYPE":"U","LAUNCH_DATE":"2021-03-11","PERIOD":"95.592","TLE_LINE2":"2 47806  53.0559  59.2101 0002303  31.9061 328.2068 15.06395917101715"},{"FILE":"3730926","CENTER_NAME":"EARTH","ARG_OF_PERICENTER":"30.0327","MEAN_MOTION_DDOT":"0.0000000000000","RCS_SIZE":"LARGE","APOAPSIS":"549.032","OBJECT_NAME":"STARLINK-2388","MEAN_MOTION_DOT":"0.00002406","EPHEMERIS_TYPE":"0","ECCENTRICITY":"0.00025840","COUNTRY_CODE":"US","CLASSIFICATION_TYPE":"U","LAUNCH_DATE":"2021-03-11","TLE_LINE2":"2 47807  53.0545  34.5414 0002584  30.0327 330.0809 15.06390648101989","PERIOD":"95.593","RA_OF_ASC_NODE":"34.5414","EPOCH":"2023-01-03T11:17:31.793568","REF_FRAME":"TEME","ELEMENT_SET_NO":"999","MEAN_MOTION":"15.06390648","REV_AT_EPOCH":"10198","GP_ID":"222110936","PERIAPSIS":"545.453","MEAN_ANOMALY":"330.0809","DECAY_DATE":null,"INCLINATION":"53.0545","OBJECT_ID":"2021-018W","OBJECT_TYPE":"PAYLOAD","TIME_SYSTEM":"UTC","TLE_LINE1":"1 47807U 21018W   23003.47050687  .00002406  00000-0  18042-3 0  9993","BSTAR":"0.00018042000000","MEAN_ELEMENT_THEORY":"SGP4","NORAD_CAT_ID":"47807","SITE":"AFETR","SEMIMAJOR_AXIS":"6925.377"}];
